{
  "type": "FeatureCollection",
  "features": [
    {
      "type": "Feature",
      "properties": {
        "norad_id": 66474,
        "name": "STARLINK-35620",
        "group": "last-30-days",
        "lat": 11.184968375463178,
        "lon": -79.54120773937704,
        "alt_km": 415.7705763933609,
        "timestamp": "2025-12-05T14:45:14.101023+00:00",
        "meta_object_name": "STARLINK-35620",
        "meta_object_id": "2025-262U",
        "meta_epoch": "2025-12-04T18:00:02.000160",
        "meta_mean_motion": 15.53915993,
        "meta_eccentricity": 0.0001706,
        "meta_inclination": 42.9995,
        "meta_ra_of_asc_node": 117.7787,
        "meta_arg_of_pericenter": 280.2246,
        "meta_mean_anomaly": 86.2289,
        "meta_ephemeris_type": 0,
        "meta_classification_type": "U",
        "meta_norad_cat_id": 66474,
        "meta_element_set_no": 999,
        "meta_rev_at_epoch": 435,
        "meta_bstar": -0.036477,
        "meta_mean_motion_dot": -0.02140813,
        "meta_mean_motion_ddot": 0,
        "tle_line1": "1 66474U 25262U   25338.75002315 -.02140813  00000+0 -36477-1 0  9996",
        "tle_line2": "2 66474  42.9995 117.7787 0001706 280.2246  86.2289 15.53915993  4350"
      },
      "geometry": {
        "type": "Point",
        "coordinates": [
          -79.54120773937704,
          11.184968375463178
        ]
      }
    },
    {
      "type": "Feature",
      "properties": {
        "norad_id": 66475,
        "name": "STARLINK-35538",
        "group": "last-30-days",
        "lat": 9.898443995156558,
        "lon": -78.08723379655643,
        "alt_km": 415.8809789712286,
        "timestamp": "2025-12-05T14:45:14.101033+00:00",
        "meta_object_name": "STARLINK-35538",
        "meta_object_id": "2025-262V",
        "meta_epoch": "2025-12-04T18:00:02.000160",
        "meta_mean_motion": 15.53911178,
        "meta_eccentricity": 0.0001594,
        "meta_inclination": 42.9996,
        "meta_ra_of_asc_node": 117.7747,
        "meta_arg_of_pericenter": 281.0844,
        "meta_mean_anomaly": 87.2908,
        "meta_ephemeris_type": 0,
        "meta_classification_type": "U",
        "meta_norad_cat_id": 66475,
        "meta_element_set_no": 999,
        "meta_rev_at_epoch": 435,
        "meta_bstar": -0.036376,
        "meta_mean_motion_dot": -0.0213511,
        "meta_mean_motion_ddot": 0,
        "tle_line1": "1 66475U 25262V   25338.75002315 -.02135110  00000+0 -36376-1 0  9999",
        "tle_line2": "2 66475  42.9996 117.7747 0001594 281.0844  87.2908 15.53911178  4356"
      },
      "geometry": {
        "type": "Point",
        "coordinates": [
          -78.08723379655643,
          9.898443995156558
        ]
      }
    },
    {
      "type": "Feature",
      "properties": {
        "norad_id": 66476,
        "name": "STARLINK-35372",
        "group": "last-30-days",
        "lat": 8.609421174279078,
        "lon": -76.6501309350085,
        "alt_km": 416.041943520343,
        "timestamp": "2025-12-05T14:45:14.101049+00:00",
        "meta_object_name": "STARLINK-35372",
        "meta_object_id": "2025-262W",
        "meta_epoch": "2025-12-04T18:00:02.000160",
        "meta_mean_motion": 15.53907752,
        "meta_eccentricity": 0.0001673,
        "meta_inclination": 42.9997,
        "meta_ra_of_asc_node": 117.7694,
        "meta_arg_of_pericenter": 281.165,
        "meta_mean_anomaly": 89.1293,
        "meta_ephemeris_type": 0,
        "meta_classification_type": "U",
        "meta_norad_cat_id": 66476,
        "meta_element_set_no": 999,
        "meta_rev_at_epoch": 424,
        "meta_bstar": -0.036303,
        "meta_mean_motion_dot": -0.02131138,
        "meta_mean_motion_ddot": 0,
        "tle_line1": "1 66476U 25262W   25338.75002315 -.02131138  00000+0 -36303-1 0  9996",
        "tle_line2": "2 66476  42.9997 117.7694 0001673 281.1650  89.1293 15.53907752  4242"
      },
      "geometry": {
        "type": "Point",
        "coordinates": [
          -76.6501309350085,
          8.609421174279078
        ]
      }
    },
    {
      "type": "Feature",
      "properties": {
        "norad_id": 66477,
        "name": "STARLINK-35354",
        "group": "last-30-days",
        "lat": 6.021615133092809,
        "lon": -73.80967228189496,
        "alt_km": 416.170885266225,
        "timestamp": "2025-12-05T14:45:14.101059+00:00",
        "meta_object_name": "STARLINK-35354",
        "meta_object_id": "2025-262X",
        "meta_epoch": "2025-12-04T18:00:02.000160",
        "meta_mean_motion": 15.53911423,
        "meta_eccentricity": 0.0001632,
        "meta_inclination": 42.9996,
        "meta_ra_of_asc_node": 117.759,
        "meta_arg_of_pericenter": 276.8015,
        "meta_mean_anomaly": 97.3241,
        "meta_ephemeris_type": 0,
        "meta_classification_type": "U",
        "meta_norad_cat_id": 66477,
        "meta_element_set_no": 999,
        "meta_rev_at_epoch": 435,
        "meta_bstar": -0.036358,
        "meta_mean_motion_dot": -0.0213424,
        "meta_mean_motion_ddot": 0,
        "tle_line1": "1 66477U 25262X   25338.75002315 -.02134240  00000+0 -36358-1 0  9994",
        "tle_line2": "2 66477  42.9996 117.7590 0001632 276.8015  97.3241 15.53911423  4354"
      },
      "geometry": {
        "type": "Point",
        "coordinates": [
          -73.80967228189496,
          6.021615133092809
        ]
      }
    },
    {
      "type": "Feature",
      "properties": {
        "norad_id": 66478,
        "name": "STARLINK-35283",
        "group": "last-30-days",
        "lat": 4.716528247609127,
        "lon": -72.3947653141486,
        "alt_km": 416.4953319926499,
        "timestamp": "2025-12-05T14:45:14.101070+00:00",
        "meta_object_name": "STARLINK-35283",
        "meta_object_id": "2025-262Y",
        "meta_epoch": "2025-12-04T18:00:02.000160",
        "meta_mean_motion": 15.53906643,
        "meta_eccentricity": 0.0001669,
        "meta_inclination": 42.9994,
        "meta_ra_of_asc_node": 117.7537,
        "meta_arg_of_pericenter": 282.951,
        "meta_mean_anomaly": 93.0945,
        "meta_ephemeris_type": 0,
        "meta_classification_type": "U",
        "meta_norad_cat_id": 66478,
        "meta_element_set_no": 999,
        "meta_rev_at_epoch": 435,
        "meta_bstar": -0.036255,
        "meta_mean_motion_dot": -0.02128558,
        "meta_mean_motion_ddot": 0,
        "tle_line1": "1 66478U 25262Y   25338.75002315 -.02128558  00000+0 -36255-1 0  9996",
        "tle_line2": "2 66478  42.9994 117.7537 0001669 282.9510  93.0945 15.53906643  4354"
      },
      "geometry": {
        "type": "Point",
        "coordinates": [
          -72.3947653141486,
          4.716528247609127
        ]
      }
    },
    {
      "type": "Feature",
      "properties": {
        "norad_id": 66479,
        "name": "STARLINK-35581",
        "group": "last-30-days",
        "lat": 7.3180073969038935,
        "lon": -75.2270993714109,
        "alt_km": 416.10813485219023,
        "timestamp": "2025-12-05T14:45:14.101080+00:00",
        "meta_object_name": "STARLINK-35581",
        "meta_object_id": "2025-262Z",
        "meta_epoch": "2025-12-04T18:00:02.000160",
        "meta_mean_motion": 15.53913647,
        "meta_eccentricity": 0.0001676,
        "meta_inclination": 42.9998,
        "meta_ra_of_asc_node": 117.7631,
        "meta_arg_of_pericenter": 278.6357,
        "meta_mean_anomaly": 93.5698,
        "meta_ephemeris_type": 0,
        "meta_classification_type": "U",
        "meta_norad_cat_id": 66479,
        "meta_element_set_no": 999,
        "meta_rev_at_epoch": 435,
        "meta_bstar": -0.036375,
        "meta_mean_motion_dot": -0.02135301,
        "meta_mean_motion_ddot": 0,
        "tle_line1": "1 66479U 25262Z   25338.75002315 -.02135301  00000+0 -36375-1 0  9994",
        "tle_line2": "2 66479  42.9998 117.7631 0001676 278.6357  93.5698 15.53913647  4355"
      },
      "geometry": {
        "type": "Point",
        "coordinates": [
          -75.2270993714109,
          7.3180073969038935
        ]
      }
    },
    {
      "type": "Feature",
      "properties": {
        "norad_id": 66480,
        "name": "STARLINK-35670",
        "group": "last-30-days",
        "lat": 3.4193055759576088,
        "lon": -70.99623221276065,
        "alt_km": 416.6432091310453,
        "timestamp": "2025-12-05T14:45:14.101090+00:00",
        "meta_object_name": "STARLINK-35670",
        "meta_object_id": "2025-262AA",
        "meta_epoch": "2025-12-04T18:00:02.000160",
        "meta_mean_motion": 15.53913911,
        "meta_eccentricity": 0.0001711,
        "meta_inclination": 42.9997,
        "meta_ra_of_asc_node": 117.7488,
        "meta_arg_of_pericenter": 282.3704,
        "meta_mean_anomaly": 95.5867,
        "meta_ephemeris_type": 0,
        "meta_classification_type": "U",
        "meta_norad_cat_id": 66480,
        "meta_element_set_no": 999,
        "meta_rev_at_epoch": 435,
        "meta_bstar": -0.0364,
        "meta_mean_motion_dot": -0.02136665,
        "meta_mean_motion_ddot": 0,
        "tle_line1": "1 66480U 25262AA  25338.75002315 -.02136665  00000+0 -36400-1 0  9999",
        "tle_line2": "2 66480  42.9997 117.7488 0001711 282.3704  95.5867 15.53913911  4358"
      },
      "geometry": {
        "type": "Point",
        "coordinates": [
          -70.99623221276065,
          3.4193055759576088
        ]
      }
    }
  ]
}